start=new Date('2022-07-07T00:00:00.000Z').valueOf();
sats=[{"MEAN_MOTION_DDOT":"0.0000000000000","OBJECT_TYPE":"PAYLOAD","EPOCH":"2022-07-06T16:00:00.999936","DECAY_DATE":null,"MEAN_MOTION_DOT":"0.00047941","BSTAR":"0.00301230000000","CENTER_NAME":"EARTH","RCS_SIZE":"LARGE","SEMIMAJOR_AXIS":"6917.969","TLE_LINE2":"2 51862  53.2153 273.6817 0001808  49.6702 124.1679 15.08811132 20565","OBJECT_ID":"2022-022L","TIME_SYSTEM":"UTC","ARG_OF_PERICENTER":"49.6702","RA_OF_ASC_NODE":"273.6817","MEAN_MOTION":"15.08811132","REF_FRAME":"TEME","MEAN_ANOMALY":"124.1679","ECCENTRICITY":"0.00018080","TLE_LINE1":"1 51862U 22022L   22187.66667824  .00047941  00000-0  30123-2 0  9991","PERIAPSIS":"538.583","GP_ID":"207516569","LAUNCH_DATE":"2022-03-03","OBJECT_NAME":"STARLINK-3508","EPHEMERIS_TYPE":"0","SITE":"AFETR","INCLINATION":"53.2153","COUNTRY_CODE":"US","ELEMENT_SET_NO":"999","APOAPSIS":"541.084","REV_AT_EPOCH":"2056","MEAN_ELEMENT_THEORY":"SGP4","FILE":"3508738","PERIOD":"95.439","NORAD_CAT_ID":"51862","CLASSIFICATION_TYPE":"U"},{"TLE_LINE1":"1 51863U 22022M   22187.58334491  .00011049  00000-0  71170-3 0  9992","PERIAPSIS":"538.616","GP_ID":"207540250","MEAN_MOTION":"15.08815151","RA_OF_ASC_NODE":"274.0759","REF_FRAME":"TEME","ECCENTRICITY":"0.00017430","MEAN_ANOMALY":"133.1582","COUNTRY_CODE":"US","ELEMENT_SET_NO":"999","APOAPSIS":"541.027","MEAN_ELEMENT_THEORY":"SGP4","REV_AT_EPOCH":"130","FILE":"3508782","CLASSIFICATION_TYPE":"U","PERIOD":"95.439","NORAD_CAT_ID":"51863","LAUNCH_DATE":"2022-03-03","OBJECT_NAME":"STARLINK-3555","EPHEMERIS_TYPE":"0","SITE":"AFETR","INCLINATION":"53.2156","DECAY_DATE":null,"MEAN_MOTION_DDOT":"0.0000000000000","OBJECT_TYPE":"PAYLOAD","EPOCH":"2022-07-06T14:00:01.000224","CENTER_NAME":"EARTH","RCS_SIZE":"LARGE","SEMIMAJOR_AXIS":"6917.956","TLE_LINE2":"2 51863  53.2156 274.0759 0001743  47.8287 133.1582 15.08815151  1304","OBJECT_ID":"2022-022M","ARG_OF_PERICENTER":"47.8287","TIME_SYSTEM":"UTC","BSTAR":"0.00071170000000","MEAN_MOTION_DOT":"0.00011049"},{"INCLINATION":"53.2141","SITE":"AFETR","EPHEMERIS_TYPE":"0","LAUNCH_DATE":"2022-03-03","OBJECT_NAME":"STARLINK-3548","FILE":"3508782","NORAD_CAT_ID":"51864","PERIOD":"95.437","CLASSIFICATION_TYPE":"U","APOAPSIS":"540.928","ELEMENT_SET_NO":"999","REV_AT_EPOCH":"130","MEAN_ELEMENT_THEORY":"SGP4","COUNTRY_CODE":"US","ECCENTRICITY":"0.00017210","MEAN_ANOMALY":"65.0456","REF_FRAME":"TEME","MEAN_MOTION":"15.08842579","RA_OF_ASC_NODE":"274.0650","GP_ID":"207541501","PERIAPSIS":"538.547","TLE_LINE1":"1 51864U 22022N   22187.58334491  .00008157  00000-0  52999-3 0  9997","MEAN_MOTION_DOT":"0.00008157","BSTAR":"0.00052999000000","ARG_OF_PERICENTER":"55.9296","TIME_SYSTEM":"UTC","TLE_LINE2":"2 51864  53.2141 274.0650 0001721  55.9296  65.0456 15.08842579  1302","OBJECT_ID":"2022-022N","SEMIMAJOR_AXIS":"6917.873","RCS_SIZE":"LARGE","CENTER_NAME":"EARTH","EPOCH":"2022-07-06T14:00:01.000224","OBJECT_TYPE":"PAYLOAD","MEAN_MOTION_DDOT":"0.0000000000000","DECAY_DATE":null},{"RA_OF_ASC_NODE":"274.0784","MEAN_MOTION":"15.08823436","REF_FRAME":"TEME","ECCENTRICITY":"0.00017810","MEAN_ANOMALY":"174.0242","TLE_LINE1":"1 51865U 22022P   22187.58334491  .00012204  00000-0  78386-3 0  9994","PERIAPSIS":"538.564","GP_ID":"207541753","OBJECT_NAME":"STARLINK-3503","LAUNCH_DATE":"2022-03-03","EPHEMERIS_TYPE":"0","SITE":"AFETR","INCLINATION":"53.2167","COUNTRY_CODE":"US","REV_AT_EPOCH":"130","MEAN_ELEMENT_THEORY":"SGP4","ELEMENT_SET_NO":"999","APOAPSIS":"541.028","CLASSIFICATION_TYPE":"U","PERIOD":"95.439","NORAD_CAT_ID":"51865","FILE":"3508782","MEAN_MOTION_DDOT":"0.0000000000000","EPOCH":"2022-07-06T14:00:01.000224","OBJECT_TYPE":"PAYLOAD","DECAY_DATE":null,"MEAN_MOTION_DOT":"0.00012204","BSTAR":"0.00078386000000","CENTER_NAME":"EARTH","SEMIMAJOR_AXIS":"6917.931","RCS_SIZE":"LARGE","OBJECT_ID":"2022-022P","TLE_LINE2":"2 51865  53.2167 274.0784 0001781  46.9423 174.0242 15.08823436  1302","TIME_SYSTEM":"UTC","ARG_OF_PERICENTER":"46.9423"},{"DECAY_DATE":null,"MEAN_MOTION_DDOT":"0.0000000000000","EPOCH":"2022-07-06T14:00:01.000224","OBJECT_TYPE":"PAYLOAD","SEMIMAJOR_AXIS":"6917.941","RCS_SIZE":"LARGE","CENTER_NAME":"EARTH","ARG_OF_PERICENTER":"46.4474","TIME_SYSTEM":"UTC","OBJECT_ID":"2022-022Q","TLE_LINE2":"2 51866  53.2143 274.0721 0001758  46.4474 114.5322 15.08820125  1303","BSTAR":"0.00067982000000","MEAN_MOTION_DOT":"0.00010542","TLE_LINE1":"1 51866U 22022Q   22187.58334491  .00010542  00000-0  67982-3 0  9998","GP_ID":"207540500","PERIAPSIS":"538.590","REF_FRAME":"TEME","MEAN_MOTION":"15.08820125","RA_OF_ASC_NODE":"274.0721","ECCENTRICITY":"0.00017580","MEAN_ANOMALY":"114.5322","COUNTRY_CODE":"US","PERIOD":"95.439","CLASSIFICATION_TYPE":"U","NORAD_CAT_ID":"51866","FILE":"3508782","MEAN_ELEMENT_THEORY":"SGP4","REV_AT_EPOCH":"130","APOAPSIS":"541.022","ELEMENT_SET_NO":"999","EPHEMERIS_TYPE":"0","OBJECT_NAME":"STARLINK-3553","LAUNCH_DATE":"2022-03-03","INCLINATION":"53.2143","SITE":"AFETR"},{"BSTAR":"0.00260650000000","MEAN_MOTION_DOT":"0.00041418","OBJECT_ID":"2022-022R","TLE_LINE2":"2 51867  53.2180 273.7089 0001971  44.1023 289.7110 15.08821831 20508","ARG_OF_PERICENTER":"44.1023","TIME_SYSTEM":"UTC","CENTER_NAME":"EARTH","RCS_SIZE":"LARGE","SEMIMAJOR_AXIS":"6917.936","EPOCH":"2022-07-06T16:00:00.999936","OBJECT_TYPE":"PAYLOAD","MEAN_MOTION_DDOT":"0.0000000000000","DECAY_DATE":null,"SITE":"AFETR","INCLINATION":"53.2180","OBJECT_NAME":"STARLINK-3590","LAUNCH_DATE":"2022-03-03","EPHEMERIS_TYPE":"0","REV_AT_EPOCH":"2050","MEAN_ELEMENT_THEORY":"SGP4","ELEMENT_SET_NO":"999","APOAPSIS":"541.164","PERIOD":"95.439","NORAD_CAT_ID":"51867","CLASSIFICATION_TYPE":"U","FILE":"3508738","COUNTRY_CODE":"US","ECCENTRICITY":"0.00019710","MEAN_ANOMALY":"289.7110","MEAN_MOTION":"15.08821831","RA_OF_ASC_NODE":"273.7089","REF_FRAME":"TEME","PERIAPSIS":"538.437","GP_ID":"207516822","TLE_LINE1":"1 51867U 22022R   22187.66667824  .00041418  00000-0  26065-2 0  9999"},{"MEAN_MOTION_DOT":"0.00010877","BSTAR":"0.00070090000000","OBJECT_ID":"2022-022S","TLE_LINE2":"2 51868  53.2165 274.0783 0001913  44.1648 156.7970 15.08817098  1300","TIME_SYSTEM":"UTC","ARG_OF_PERICENTER":"44.1648","CENTER_NAME":"EARTH","SEMIMAJOR_AXIS":"6917.950","RCS_SIZE":"LARGE","EPOCH":"2022-07-06T14:00:01.000224","OBJECT_TYPE":"PAYLOAD","MEAN_MOTION_DDOT":"0.0000000000000","DECAY_DATE":null,"SITE":"AFETR","INCLINATION":"53.2165","OBJECT_NAME":"STARLINK-3578","LAUNCH_DATE":"2022-03-03","EPHEMERIS_TYPE":"0","REV_AT_EPOCH":"130","MEAN_ELEMENT_THEORY":"SGP4","APOAPSIS":"541.139","ELEMENT_SET_NO":"999","PERIOD":"95.439","CLASSIFICATION_TYPE":"U","NORAD_CAT_ID":"51868","FILE":"3508782","COUNTRY_CODE":"US","MEAN_ANOMALY":"156.7970","ECCENTRICITY":"0.00019130","MEAN_MOTION":"15.08817098","RA_OF_ASC_NODE":"274.0783","REF_FRAME":"TEME","PERIAPSIS":"538.492","GP_ID":"207541002","TLE_LINE1":"1 51868U 22022S   22187.58334491  .00010877  00000-0  70090-3 0  9995"},{"REV_AT_EPOCH":"130","MEAN_ELEMENT_THEORY":"SGP4","ELEMENT_SET_NO":"999","APOAPSIS":"541.041","CLASSIFICATION_TYPE":"U","PERIOD":"95.439","NORAD_CAT_ID":"51869","FILE":"3508782","COUNTRY_CODE":"US","SITE":"AFETR","INCLINATION":"53.2194","OBJECT_NAME":"STARLINK-3588","LAUNCH_DATE":"2022-03-03","EPHEMERIS_TYPE":"0","PERIAPSIS":"538.560","GP_ID":"207541253","TLE_LINE1":"1 51869U 22022T   22187.58334491  .00013568  00000-0  86935-3 0  9991","MEAN_ANOMALY":"257.8749","ECCENTRICITY":"0.00017930","MEAN_MOTION":"15.08822039","RA_OF_ASC_NODE":"274.0723","REF_FRAME":"TEME","OBJECT_ID":"2022-022T","TLE_LINE2":"2 51869  53.2194 274.0723 0001793  43.0819 257.8749 15.08822039  1309","TIME_SYSTEM":"UTC","ARG_OF_PERICENTER":"43.0819","CENTER_NAME":"EARTH","SEMIMAJOR_AXIS":"6917.935","RCS_SIZE":"LARGE","BSTAR":"0.00086935000000","MEAN_MOTION_DOT":"0.00013568","DECAY_DATE":null,"OBJECT_TYPE":"PAYLOAD","EPOCH":"2022-07-06T14:00:01.000224","MEAN_MOTION_DDOT":"0.0000000000000"},{"TIME_SYSTEM":"UTC","ARG_OF_PERICENTER":"42.0789","OBJECT_ID":"2022-022U","TLE_LINE2":"2 51870  53.2181 274.0821 0001894  42.0789 218.8964 15.08816479  1300","SEMIMAJOR_AXIS":"6917.952","RCS_SIZE":"LARGE","CENTER_NAME":"EARTH","MEAN_MOTION_DOT":"0.00006394","BSTAR":"0.00041974000000","DECAY_DATE":null,"EPOCH":"2022-07-06T14:00:01.000224","OBJECT_TYPE":"PAYLOAD","MEAN_MOTION_DDOT":"0.0000000000000","PERIOD":"95.439","NORAD_CAT_ID":"51870","CLASSIFICATION_TYPE":"U","FILE":"3508782","REV_AT_EPOCH":"130","MEAN_ELEMENT_THEORY":"SGP4","ELEMENT_SET_NO":"999","APOAPSIS":"541.128","COUNTRY_CODE":"US","INCLINATION":"53.2181","SITE":"AFETR","EPHEMERIS_TYPE":"0","OBJECT_NAME":"STARLINK-3591","LAUNCH_DATE":"2022-03-03","GP_ID":"207540002","PERIAPSIS":"538.507","TLE_LINE1":"1 51870U 22022U   22187.58334491  .00006394  00000-0  41974-3 0  9996","MEAN_ANOMALY":"218.8964","ECCENTRICITY":"0.00018940","REF_FRAME":"TEME","MEAN_MOTION":"15.08816479","RA_OF_ASC_NODE":"274.0821"},{"EPOCH":"2022-07-06T14:00:01.000224","OBJECT_TYPE":"PAYLOAD","MEAN_MOTION_DDOT":"0.0000000000000","DECAY_DATE":null,"BSTAR":"0.00080874000000","MEAN_MOTION_DOT":"0.00012601","TIME_SYSTEM":"UTC","ARG_OF_PERICENTER":"35.3068","OBJECT_ID":"2022-022V","TLE_LINE2":"2 51871  53.2193 274.0702 0002042  35.3068 285.6588 15.08823061  1302","SEMIMAJOR_AXIS":"6917.932","RCS_SIZE":"LARGE","CENTER_NAME":"EARTH","MEAN_ANOMALY":"285.6588","ECCENTRICITY":"0.00020420","REF_FRAME":"TEME","RA_OF_ASC_NODE":"274.0702","MEAN_MOTION":"15.08823061","GP_ID":"207540251","PERIAPSIS":"538.385","TLE_LINE1":"1 51871U 22022V   22187.58334491  .00012601  00000-0  80874-3 0  9997","INCLINATION":"53.2193","SITE":"AFETR","EPHEMERIS_TYPE":"0","OBJECT_NAME":"STARLINK-3567","LAUNCH_DATE":"2022-03-03","PERIOD":"95.439","CLASSIFICATION_TYPE":"U","NORAD_CAT_ID":"51871","FILE":"3508782","REV_AT_EPOCH":"130","MEAN_ELEMENT_THEORY":"SGP4","APOAPSIS":"541.210","ELEMENT_SET_NO":"999","COUNTRY_CODE":"US"}];
